{"type": "FeatureCollection", "features": [ {"type": "Feature", "properties": {"norad_id": 66375, "name": "STARLINK-35826", "group": "last-30-days", "lat": 18.83389978328534, "lon": 126.52669343569339, "alt_km": 344.5162912289734, "timestamp": "2025-12-03T08:58:44.776211+00:00", "meta": {"OBJECT_NAME": "STARLINK-35826", "OBJECT_ID": "2025-254AD", "EPOCH": "2025-12-03T02:13:27.577920", "MEAN_MOTION": 15.74202242, "ECCENTRICITY": 0.0001438, "INCLINATION": 53.157, "RA_OF_ASC_NODE": 322.7422, "ARG_OF_PERICENTER": 83.4253, "MEAN_ANOMALY": 276.6931, "EPHEMERIS_TYPE": 0, "CLASSIFICATION_TYPE": "U", "NORAD_CAT_ID": 66375, "ELEMENT_SET_NO": 999, "REV_AT_EPOCH": 416, "BSTAR": 0.0010632, "MEAN_MOTION_DOT": 0.0015813, "MEAN_MOTION_DDOT": 0}, "tle": {"line1": "1 66375U 25254AD  25337.09268030  .00158130  00000+0  10632-2 0  9994", "line2": "2 66375  53.1570 322.7422 0001438  83.4253 276.6931 15.74202242  4167"}}, "geometry": {"type": "Point", "coordinates": [126.52669343569339, 18.83389978328534]}}, {"type": "Feature", "properties": {"norad_id": 66376, "name": "SHIYAN-32 01", "group": "last-30-days", "lat": 52.79896687727101, "lon": -53.914388462156204, "alt_km": 429.57079656652695, "timestamp": "2025-12-03T08:58:44.776224+00:00", "meta": {"OBJECT_NAME": "SHIYAN-32 01", "OBJECT_ID": "2025-255A", "EPOCH": "2025-12-03T03:56:33.720288", "MEAN_MOTION": 15.42269156, "ECCENTRICITY": 0.001344, "INCLINATION": 52.9966, "RA_OF_ASC_NODE": 223.5875, "ARG_OF_PERICENTER": 12.4455, "MEAN_ANOMALY": 347.6878, "EPHEMERIS_TYPE": 0, "CLASSIFICATION_TYPE": "U", "NORAD_CAT_ID": 66376, "ELEMENT_SET_NO": 999, "REV_AT_EPOCH": 387, "BSTAR": 0.00063113, "MEAN_MOTION_DOT": 0.00027333, "MEAN_MOTION_DDOT": 0}, "tle": {"line1": "1 66376U 25255A   25337.16427917  .00027333  00000+0  63113-3 0  9998", "line2": "2 66376  52.9966 223.5875 0013440  12.4455 347.6878 15.42269156  3874"}}, "geometry": {"type": "Point", "coordinates": [-53.914388462156204, 52.79896687727101]}}, {"type": "Feature", "properties": {"norad_id": 66377, "name": "CZ-11 DEB", "group": "last-30-days", "lat": 22.023477394373142, "lon": 24.697099221781098, "alt_km": 440.7027250537085, "timestamp": "2025-12-03T08:58:44.776234+00:00", "meta": {"OBJECT_NAME": "CZ-11 DEB", "OBJECT_ID": "2025-255B", "EPOCH": "2025-12-03T03:39:44.697888", "MEAN_MOTION": 15.43512096, "ECCENTRICITY": 0.001394, "INCLINATION": 52.9967, "RA_OF_ASC_NODE": 223.5137, "ARG_OF_PERICENTER": 10.1182, "MEAN_ANOMALY": 350.01, "EPHEMERIS_TYPE": 0, "CLASSIFICATION_TYPE": "U", "NORAD_CAT_ID": 66377, "ELEMENT_SET_NO": 999, "REV_AT_EPOCH": 373, "BSTAR": 0.0010668, "MEAN_MOTION_DOT": 0.00048636, "MEAN_MOTION_DDOT": 0}, "tle": {"line1": "1 66377U 25255B   25337.15260067  .00048636  00000+0  10668-2 0  9994", "line2": "2 66377  52.9967 223.5137 0013940  10.1182 350.0100 15.43512096  3730"}}, "geometry": {"type": "Point", "coordinates": [24.697099221781098, 22.023477394373142]}}, {"type": "Feature", "properties": {"norad_id": 66378, "name": "SHIYAN-32 02", "group": "last-30-days", "lat": -0.20121823124501062, "lon": 42.55614352875597, "alt_km": 443.1337012394515, "timestamp": "2025-12-03T08:58:44.776245+00:00", "meta": {"OBJECT_NAME": "SHIYAN-32 02", "OBJECT_ID": "2025-255C", "EPOCH": "2025-12-03T03:32:31.882272", "MEAN_MOTION": 15.44084995, "ECCENTRICITY": 0.0012368, "INCLINATION": 52.9971, "RA_OF_ASC_NODE": 223.4835, "ARG_OF_PERICENTER": 9.8117, "MEAN_ANOMALY": 350.3126, "EPHEMERIS_TYPE": 0, "CLASSIFICATION_TYPE": "U", "NORAD_CAT_ID": 66378, "ELEMENT_SET_NO": 999, "REV_AT_EPOCH": 373, "BSTAR": 0.0020674, "MEAN_MOTION_DOT": 0.0009704, "MEAN_MOTION_DDOT": 0}, "tle": {"line1": "1 66378U 25255C   25337.14759123  .00097040  00000+0  20674-2 0  9991", "line2": "2 66378  52.9971 223.4835 0012368   9.8117 350.3126 15.44084995  3730"}}, "geometry": {"type": "Point", "coordinates": [42.55614352875597, -0.20121823124501062]}}, {"type": "Feature", "properties": {"norad_id": 66379, "name": "SHIYAN-32 03", "group": "last-30-days", "lat": 44.987716252060224, "lon": -6.39508190301564, "alt_km": 434.78605257740855, "timestamp": "2025-12-03T08:58:44.776257+00:00", "meta": {"OBJECT_NAME": "SHIYAN-32 03", "OBJECT_ID": "2025-255D", "EPOCH": "2025-12-03T03:48:27.506880", "MEAN_MOTION": 15.42622193, "ECCENTRICITY": 0.0015469, "INCLINATION": 52.9973, "RA_OF_ASC_NODE": 223.5532, "ARG_OF_PERICENTER": 13.41, "MEAN_ANOMALY": 346.7312, "EPHEMERIS_TYPE": 0, "CLASSIFICATION_TYPE": "U", "NORAD_CAT_ID": 66379, "ELEMENT_SET_NO": 999, "REV_AT_EPOCH": 375, "BSTAR": 0.00057443, "MEAN_MOTION_DOT": 0.00025157, "MEAN_MOTION_DDOT": 0}, "tle": {"line1": "1 66379U 25255D   25337.15865170  .00025157  00000+0  57443-3 0  9998", "line2": "2 66379  52.9973 223.5532 0015469  13.4100 346.7312 15.42622193  3750"}}, "geometry": {"type": "Point", "coordinates": [-6.39508190301564, 44.987716252060224]}}, {"type": "Feature", "properties": {"norad_id": 66380, "name": "STARLINK-35139", "group": "last-30-days", "lat": 45.13638897614587, "lon": -2.3349291861630106, "alt_km": 440.5939047750171, "timestamp": "2025-12-03T08:58:44.776268+00:00", "meta": {"OBJECT_NAME": "STARLINK-35139", "OBJECT_ID": "2025-257A", "EPOCH": "2025-12-03T04:00:01.998720", "MEAN_MOTION": 15.39578417, "ECCENTRICITY": 0.0001181, "INCLINATION": 53.1586, "RA_OF_ASC_NODE": 309.7629, "ARG_OF_PERICENTER": 90.3885, "MEAN_ANOMALY": 261.6374, "EPHEMERIS_TYPE": 0, "CLASSIFICATION_TYPE": "U", "NORAD_CAT_ID": 66380, "ELEMENT_SET_NO": 999, "REV_AT_EPOCH": 489, "BSTAR": 0.00081433, "MEAN_MOTION_DOT": 0.00032266, "MEAN_MOTION_DDOT": 0}, "tle": {"line1": "1 66380U 25257A   25337.16668980  .00032266  00000+0  81433-3 0  9998", "line2": "2 66380  53.1586 309.7629 0001181  90.3885 261.6374 15.39578417  4893"}}, "geometry": {"type": "Point", "coordinates": [-2.3349291861630106, 45.13638897614587]}}, {"type": "Feature", "properties": {"norad_id": 66381, "name": "STARLINK-35158", "group": "last-30-days", "lat": 46.08227995954973, "lon": -0.08423635034339193, "alt_km": 440.29791949892115, "timestamp": "2025-12-03T08:58:44.776279+00:00", "meta": {"OBJECT_NAME": "STARLINK-35158", "OBJECT_ID": "2025-257B", "EPOCH": "2025-12-03T04:00:01.998720", "MEAN_MOTION": 15.39582648, "ECCENTRICITY": 0.0001442, "INCLINATION": 53.1587, "RA_OF_ASC_NODE": 309.7586, "ARG_OF_PERICENTER": 93.1907, "MEAN_ANOMALY": 260.6708, "EPHEMERIS_TYPE": 0, "CLASSIFICATION_TYPE": "U", "NORAD_CAT_ID": 66381, "ELEMENT_SET_NO": 999, "REV_AT_EPOCH": 495, "BSTAR": 0.00072175, "MEAN_MOTION_DOT": 0.00028542, "MEAN_MOTION_DDOT": 0}, "tle": {"line1": "1 66381U 25257B   25337.16668980  .00028542  00000+0  72175-3 0  9994", "line2": "2 66381  53.1587 309.7586 0001442  93.1907 260.6708 15.39582648  4951"}}, "geometry": {"type": "Point", "coordinates": [-0.08423635034339193, 46.08227995954973]}}, {"type": "Feature", "properties": {"norad_id": 66382, "name": "STARLINK-35639", "group": "last-30-days", "lat": 53.10007004934604, "lon": 35.66450782604029, "alt_km": 439.2562936174827, "timestamp": "2025-12-03T08:58:44.776289+00:00", "meta": {"OBJECT_NAME": "STARLINK-35639", "OBJECT_ID": "2025-257C", "EPOCH": "2025-12-03T04:00:01.998720", "MEAN_MOTION": 15.39577814, "ECCENTRICITY": 0.0001367, "INCLINATION": 53.159, "RA_OF_ASC_NODE": 309.7097, "ARG_OF_PERICENTER": 91.3775, "MEAN_ANOMALY": 286.4028, "EPHEMERIS_TYPE": 0, "CLASSIFICATION_TYPE": "U", "NORAD_CAT_ID": 66382, "ELEMENT_SET_NO": 999, "REV_AT_EPOCH": 495, "BSTAR": 0.00069601, "MEAN_MOTION_DOT": 0.00027502, "MEAN_MOTION_DDOT": 0}, "tle": {"line1": "1 66382U 25257C   25337.16668980  .00027502  00000+0  69601-3 0  9990", "line2": "2 66382  53.1590 309.7097 0001367  91.3775 286.4028 15.39577814  4952"}}, "geometry": {"type": "Point", "coordinates": [35.66450782604029, 53.10007004934604]}}, {"type": "Feature", "properties": {"norad_id": 66383, "name": "STARLINK-35690", "group": "last-30-days", "lat": 47.08345138703251, "lon": 74.94029777325399, "alt_km": 437.4384653782845, "timestamp": "2025-12-03T08:58:44.776299+00:00", "meta": {"OBJECT_NAME": "STARLINK-35690", "OBJECT_ID": "2025-257D", "EPOCH": "2025-12-03T04:00:01.998720", "MEAN_MOTION": 15.4157199, "ECCENTRICITY": 0.0001152, "INCLINATION": 53.1592, "RA_OF_ASC_NODE": 309.6607, "ARG_OF_PERICENTER": 104.0539, "MEAN_ANOMALY": 298.1955, "EPHEMERIS_TYPE": 0, "CLASSIFICATION_TYPE": "U", "NORAD_CAT_ID": 66383, "ELEMENT_SET_NO": 999, "REV_AT_EPOCH": 495, "BSTAR": -0.062933, "MEAN_MOTION_DOT": -0.02388453, "MEAN_MOTION_DDOT": 0}, "tle": {"line1": "1 66383U 25257D   25337.16668980 -.02388453  00000+0 -62933-1 0  9999", "line2": "2 66383  53.1592 309.6607 0001152 104.0539 298.1955 15.41571990  4954"}}, "geometry": {"type": "Point", "coordinates": [74.94029777325399, 47.08345138703251]}}, {"type": "Feature", "properties": {"norad_id": 66384, "name": "STARLINK-35662", "group": "last-30-days", "lat": 46.18817416032838, "lon": 77.28088673527905, "alt_km": 437.66314427839916, "timestamp": "2025-12-03T08:58:44.776312+00:00", "meta": {"OBJECT_NAME": "STARLINK-35662", "OBJECT_ID": "2025-257E", "EPOCH": "2025-12-03T04:00:01.998720", "MEAN_MOTION": 15.41552093, "ECCENTRICITY": 0.0001105, "INCLINATION": 53.1594, "RA_OF_ASC_NODE": 309.658, "ARG_OF_PERICENTER": 97.4017, "MEAN_ANOMALY": 306.6958, "EPHEMERIS_TYPE": 0, "CLASSIFICATION_TYPE": "U", "NORAD_CAT_ID": 66384, "ELEMENT_SET_NO": 999, "REV_AT_EPOCH": 495, "BSTAR": -0.062398, "MEAN_MOTION_DOT": -0.02368937, "MEAN_MOTION_DDOT": 0}, "tle": {"line1": "1 66384U 25257E   25337.16668980 -.02368937  00000+0 -62398-1 0  9990", "line2": "2 66384  53.1594 309.6580 0001105  97.4017 306.6958 15.41552093  4952"}}, "geometry": {"type": "Point", "coordinates": [77.28088673527905, 46.18817416032838]}}]}